[
    {
        "Altitude(m)": 622200.0787385969,
        "Argument of Periapsis(deg)": 0.0,
        "Eccentricity": 0.0,
        "Inclination(deg)": 60.0,
        "Latitude(deg)": -52.16245967166265,
        "Longitude(deg)": 122.3606999210164,
        "Mean Anomaly(deg)": -65.45449999999992,
        "RAAN(deg)": 270.0,
        "Satellite Name": "Test1 1206",
        "Satellite Number": 1206,
        "Semi-Major Axis(m)": 6980739.136638005,
        "Time(s)": 0
    },
    {
        "Altitude(m)": 622058.246601471,
        "Argument of Periapsis(deg)": 0.00010418945913296404,
        "Eccentricity": 0.0,
        "Inclination(deg)": 60.0,
        "Latitude(deg)": -51.799209876367385,
        "Longitude(deg)": 123.1287571603581,
        "Mean Anomaly(deg)": -64.83439385453808,
        "RAAN(deg)": 269.99957995086027,
        "Satellite Name": "Test1 1206",
        "Satellite Number": 1206,
        "Semi-Major Axis(m)": 6980739.136638005,
        "Time(s)": 10
    }
]